[{"OBJECT_NAME":"STARLINK-6253","OBJECT_ID":"2023-088AM","EPOCH":"2026-03-09T22:00:01.999584","MEAN_MOTION":15.07537854,"ECCENTRICITY":0.00020756,"INCLINATION":43.0012,"RA_OF_ASC_NODE":93.1892,"ARG_OF_PERICENTER":276.671,"MEAN_ANOMALY":108.0409,"EPHEMERIS_TYPE":0,"CLASSIFICATION_TYPE":"U","NORAD_CAT_ID":57083,"ELEMENT_SET_NO":999,"REV_AT_EPOCH":542,"BSTAR":0.0036323374,"MEAN_MOTION_DOT":0.00056362,"MEAN_MOTION_DDOT":0},{"OBJECT_NAME":"KSLV-II R\/B","OBJECT_ID":"2025-274P","EPOCH":"2026-03-09T17:44:44.185056","MEAN_MOTION":14.98166503,"ECCENTRICITY":0.00605567,"INCLINATION":97.7452,"RA_OF_ASC_NODE":0.3618,"ARG_OF_PERICENTER":19.961,"MEAN_ANOMALY":340.3962,"EPHEMERIS_TYPE":0,"CLASSIFICATION_TYPE":"U","NORAD_CAT_ID":66663,"ELEMENT_SET_NO":999,"REV_AT_EPOCH":1543,"BSTAR":0.00059831331,"MEAN_MOTION_DOT":7.309e-5,"MEAN_MOTION_DDOT":0}]
